[{"OBJECT_NAME":"TIANQI-33","OBJECT_ID":"2024-245A","EPOCH":"2026-03-09T23:40:08.404896","MEAN_MOTION":13.99170744,"ECCENTRICITY":0.00094142,"INCLINATION":44.9842,"RA_OF_ASC_NODE":43.422,"ARG_OF_PERICENTER":270.4695,"MEAN_ANOMALY":89.5059,"EPHEMERIS_TYPE":0,"CLASSIFICATION_TYPE":"U","NORAD_CAT_ID":62365,"ELEMENT_SET_NO":999,"REV_AT_EPOCH":6246,"BSTAR":0.00013765247,"MEAN_MOTION_DOT":7.2e-7,"MEAN_MOTION_DDOT":0},{"OBJECT_NAME":"METEOR 2-11 DEB","OBJECT_ID":"1984-072V","EPOCH":"2026-03-01T20:41:57.771744","MEAN_MOTION":13.95194329,"ECCENTRICITY":0.0017125,"INCLINATION":82.5442,"RA_OF_ASC_NODE":115.0025,"ARG_OF_PERICENTER":38.0782,"MEAN_ANOMALY":322.1591,"EPHEMERIS_TYPE":0,"CLASSIFICATION_TYPE":"U","NORAD_CAT_ID":43310,"ELEMENT_SET_NO":999,"REV_AT_EPOCH":56886,"BSTAR":0.0015116,"MEAN_MOTION_DOT":2.058e-5,"MEAN_MOTION_DDOT":0}]
